# From MPC106342
C/1995 O1 (Hale-Bopp),e,89.1405,283.0420,130.4501,177.7170,0.0004160,0.99496406,0.0000,03/29.7330/1997,2000,g -2.0,4.0
# From MPC 27287
C/1996 B2 (Hyakutake),e,125.6298,186.7875,129.3906,1523,0.0000166,0.99985074,0.0000,04/20.1910/1996,2000,g 10.0,4.0
# From NK 1615
P/1996 R2 (Lagerkvist),e,2.6007,40.0140,333.3464,3.774896,0.1343837,0.31437617,138.7964,12/11.0/2021,2000,g 11.5,4.0
# From MPC 30063
P/1997 B1 (Kobayashi),e,12.3394,328.8819,183.3211,8.581445,0.0392070,0.76039272,355.7767,12/11.0/2021,2000,g 15.0,2.0
# From MPC 75703
P/1998 VS24 (LINEAR),e,5.0265,159.0385,244.6048,4.527181,0.1023204,0.24261470,145.5349,12/11.0/2021,2000,g 13.0,2.0
# From NK 731
P/1999 RO28 (LONEOS),e,7.5671,137.8845,231.2691,3.426663,0.1553807,0.67237526,139.6147,12/11.0/2021,2000,g 20.0,2.0
# From MPC 75704
P/1999 XN120 (Catalina),e,5.0297,285.2962,161.7722,4.178935,0.1153734,0.21025533,189.9028,12/11.0/2021,2000,g 13.5,2.0
# From NK 744
P/2000 R2 (LINEAR),e,11.6871,160.2856,176.5606,3.467098,0.1526704,0.53158977,138.5259,12/11.0/2021,2000,g 18.0,4.0
# From MPC 43019
P/2001 H5 (NEAT),e,8.3670,328.6842,224.8152,6.097174,0.0654653,0.59827381,147.1082,12/11.0/2021,2000,g 12.0,4.0
# From MPC 75704
P/2001 Q6 (NEAT),e,56.9109,22.1728,42.9297,7.955203,0.0439266,0.82311628,324.4367,12/11.0/2021,2000,g 13.5,4.0
# From MPC 47727
P/2002 EJ57 (LINEAR),e,4.9764,330.3229,167.3327,6.467793,0.0599197,0.59230672,76.2376,12/11.0/2021,2000,g 12.5,4.0
# From MPEC 2021-W31
C/2002 O4 (Hoenig),h,09/30.3176/2002,73.1861,322.0468,105.4057,1.000256,0.761957,2000,9.5,4.0
# From MPC109588
P/2002 T6 (NEAT-LINEAR),e,10.8419,206.1739,219.6601,7.698021,0.0461461,0.56124657,316.0059,12/11.0/2021,2000,g 10.5,4.0
# From MPC 75007
C/2002 VQ94 (LINEAR),e,70.6434,35.0901,100.0760,184.6197,0.0003929,0.96304208,2.2774,12/11.0/2021,2000,g  9.5,2.0
# From MPC 50354
P/2003 F2 (NEAT),e,11.6078,359.0132,192.1973,6.502184,0.0594450,0.54198933,45.1388,12/11.0/2021,2000,g 16.5,2.0
# From MPC 50139
P/2003 QX29 (NEAT),e,11.3908,264.5482,37.5636,8.023103,0.0433701,0.47289166,302.1531,12/11.0/2021,2000,g  8.5,4.0
# From MPC105235
P/2003 T12 (SOHO),e,11.0213,174.5814,219.7479,2.585802,0.2370343,0.76990143,138.1951,12/11.0/2021,2000,g 17.0,4.0
# From MPC 82312
P/2004 A1 (LONEOS),e,10.5517,124.8522,21.2061,7.964974,0.0438458,0.30946240,278.1782,12/11.0/2021,2000,g  6.5,4.0
# From MPC 54558
P/2004 DO29 (Spacewatch-LINEAR),e,14.5324,147.3723,40.6116,7.288869,0.0500857,0.44110337,314.6049,12/11.0/2021,2000,g 13.5,2.0
# From MPC 54823
P/2004 FY140 (LINEAR),e,2.1348,326.7671,242.3042,4.904714,0.0907368,0.16800771,211.8778,12/11.0/2021,2000,g 12.5,2.0
# From MPC 53304
P/2004 R3 (LINEAR-NEAT),e,12.7881,305.4065,37.8749,4.779153,0.0943360,0.25778428,7.5141,12/11.0/2021,2000,g 14.5,4.0
# From MPC 55521
P/2004 V3 (Siding Spring),e,50.4432,356.1282,322.4050,7.136706,0.0516961,0.44622854,323.2172,12/11.0/2021,2000,g 11.5,4.0
# From MPC 75705
P/2004 V5 (LINEAR-Hill),e,19.3402,47.7903,87.6442,7.982956,0.0436977,0.44387024,269.3267,12/11.0/2021,2000,g  8.0,4.0
# From MPC 54164
P/2005 E1 (Tubbiolo),e,4.2637,335.5690,193.9893,7.043932,0.0527207,0.37522012,325.3567,12/11.0/2021,2000,g 10.0,4.0
# From MPC 54823
P/2005 GF8 (LONEOS),e,1.1860,314.6121,284.5767,5.811513,0.0703510,0.51707451,56.6984,12/11.0/2021,2000,g 11.5,4.0
# From MPC 79019
P/2005 J1 (McNaught),e,31.7532,268.8199,338.9565,3.571000,0.1460560,0.56936174,168.8130,12/11.0/2021,2000,g 16.5,4.0
# From MPC 74246
P/2005 L1 (McNaught),e,7.7385,138.2483,149.7493,3.977843,0.1242318,0.20997191,4.7395,12/11.0/2021,2000,g  9.5,4.0
# From MPC 75706
P/2005 S2 (Skiff),e,3.1357,161.2181,229.2303,8.011512,0.0434643,0.19789994,247.3123,12/11.0/2021,2000,g  7.5,4.0
# From MPC 75706
P/2005 SB216 (LONEOS),e,24.0979,1.1571,83.3201,7.136692,0.0516962,0.46405152,282.5518,12/11.0/2021,2000,g 12.0,2.0
# From MPEC 2021-W47
P/2005 T2 (Christensen),e,8.2890,260.1568,58.9242,3.846468,0.1306504,0.41584754,80.3006,12/11.0/2021,2000,g 14.5,4.0
# From MPC 73461
P/2005 T3 (Read),e,6.2236,27.7000,6.7282,7.585271,0.0471789,0.17482118,279.3482,12/11.0/2021,2000,g  9.0,4.0
# From MPC 73461
P/2005 T4 (SWAN),e,160.2376,25.8271,41.7347,9.360943,0.0344132,0.92970893,203.4900,12/11.0/2021,2000,g 15.0,4.0
# From MPC 75706
P/2005 T5 (Broughton),e,21.3685,56.9997,304.6136,7.286518,0.0501100,0.55252404,295.8019,12/11.0/2021,2000,g 11.0,4.0
# From MPC 75706
P/2005 Y2 (McNaught),e,19.0459,94.3017,193.8095,6.362531,0.0614128,0.46936636,25.6982,12/11.0/2021,2000,g  9.0,4.0
# From MPC 56954
P/2006 F4 (Spacewatch),e,12.4392,183.8233,30.7881,3.517723,0.1493866,0.34101943,128.6945,12/11.0/2021,2000,g 15.0,4.0
# From MPC 75707
P/2006 HR30 (Siding Spring),e,31.8376,309.8838,117.3120,7.810597,0.0451521,0.84261368,247.3222,12/11.0/2021,2000,g 11.0,4.0
# From MPC 75707
P/2007 A2 (Christensen),e,26.4874,300.9100,186.7128,6.331697,0.0618620,0.55799607,338.1554,12/11.0/2021,2000,g 13.5,4.0
# From MPC 75707
P/2007 C2 (Catalina),e,8.6216,275.4226,180.1115,6.993579,0.0532911,0.47142784,276.6108,12/11.0/2021,2000,g 10.0,4.0
# From MPC 84315
C/2007 D1 (LINEAR),e,41.5017,171.2281,339.9295,1305,0.0000209,0.99324976,0.0000,06/07.5625/2007,2000,g  3.5,4.0
# From MPC 82314
P/2007 K2 (Gibbs),e,7.6292,188.6379,347.4053,7.269126,0.0502899,0.68296039,267.1553,12/11.0/2021,2000,g 14.0,4.0
# From MPC 60925
P/2007 Q2 (Gilmore),e,10.2026,172.1564,162.8030,5.654276,0.0733058,0.67012519,27.7835,12/11.0/2021,2000,g 16.0,4.0
# From MPC 73462
P/2007 S1 (Zhao),e,5.9641,141.3701,245.4197,3.820848,0.1319667,0.33972385,320.3316,12/11.0/2021,2000,g 13.0,4.0
# From MPC 61994
P/2007 T2 (Kowalski),e,9.7513,3.3762,359.6464,3.046502,0.1853540,0.78555634,229.0354,12/11.0/2021,2000,g 18.5,4.0
# From MPC 75709
P/2008 L2 (Hill),e,25.8666,218.0138,141.2436,6.027568,0.0666026,0.61332239,325.6289,12/11.0/2021,2000,g 12.5,4.0
# From MPC 64114
P/2008 O3 (Boattini),e,32.2976,47.5756,341.1240,8.218927,0.0418294,0.69588650,206.8814,12/11.0/2021,2000,g 13.0,4.0
# From MPEC 2021-X81
P/2008 WZ96 (LINEAR),e,7.1144,56.4186,341.9868,3.487122,0.1513573,0.46943111,16.1826,12/11.0/2021,2000,g 17.2,4.0
# From MPC 75710
P/2008 Y3 (McNaught),e,38.7719,262.8223,238.1378,8.047563,0.0431725,0.44550215,204.6418,12/11.0/2021,2000,g  8.5,4.0
# From MPC 75710
P/2009 B1 (Boattini),e,22.2248,297.0844,128.8779,6.737439,0.0563588,0.63515084,266.2412,12/11.0/2021,2000,g 13.0,4.0
# From MPC 66466
C/2009 G1 (STEREO),e,108.6691,120.4752,175.4609,450.0071,0.0001032,0.99747003,0.0000,04/16.8720/2009,2000,g  9.0,4.0
# From MPC 75710
P/2009 O3 (Hill),e,16.2824,183.6918,154.4526,7.768036,0.0455237,0.68787249,208.6122,12/11.0/2021,2000,g 12.5,4.0
# From MPC 68902
P/2009 Q5 (McNaught),e,40.9887,160.2802,209.0519,7.433515,0.0486309,0.60944106,217.6985,12/11.0/2021,2000,g 10.0,4.0
# From MPC112389
P/2009 T2 (La Sagra),e,27.5828,215.8548,216.3525,7.721606,0.0459349,0.76577423,200.5596,12/11.0/2021,2000,g 14.0,4.0
# From MPC105235
P/2009 WX51 (Catalina),e,9.5935,31.6308,118.1745,3.082132,0.1821492,0.74001862,70.9868,12/11.0/2021,2000,g 19.0,2.0
# From MPC 74247
P/2009 Y2 (Kowalski),e,29.9440,262.0304,172.1339,6.550214,0.0587924,0.63630707,253.0956,12/11.0/2021,2000,g 13.0,4.0
# From MPC 75711
P/2010 A3 (Hill),e,14.8251,63.7567,42.2048,6.081318,0.0657215,0.73358595,281.9674,12/11.0/2021,2000,g 14.0,4.0
# From MPC 75008
P/2010 C1 (Scotti),e,9.1282,141.8864,3.5616,7.103964,0.0520539,0.25924266,229.8668,12/11.0/2021,2000,g  9.5,4.0
# From MPC 75008
P/2010 D2 (WISE),e,57.0887,319.8887,119.9926,6.718522,0.0565970,0.45117758,244.6420,12/11.0/2021,2000,g 16.0,4.0
# From MPC 75009
P/2010 E2 (Jarnac),e,15.3888,177.8215,8.3430,8.639854,0.0388101,0.71961109,165.9131,12/11.0/2021,2000,g 14.0,4.0
# From MPC 72851
P/2010 H2 (Vales),e,14.2756,64.1920,128.0551,3.833047,0.1313372,0.19608861,204.2113,12/11.0/2021,2000,g  6.0,4.0
# From MPC 70361
P/2010 H3 (SOHO),e,23.0644,77.0848,26.1608,3.037056,0.1862194,0.98535617,0.0000,02/07.9399/2021,2000,g 20.0,2.0
# From MPC 73463
P/2010 H4 (Scotti),e,2.3180,44.7328,179.4680,6.594965,0.0581950,0.26666859,244.2951,12/11.0/2021,2000,g 10.5,4.0
# From MPC 74637
P/2010 H5 (Scotti),e,14.0598,24.7996,175.0292,7.165810,0.0513814,0.15278993,219.6556,12/11.0/2021,2000,g 13.0,2.0
# From MPC 98558
P/2010 J3 (McMillan),e,13.2792,106.4351,157.5990,8.975967,0.0366507,0.72639357,151.0939,12/11.0/2021,2000,g 11.0,4.0
# From MPC 84315
P/2010 JC81 (WISE),e,38.7845,30.8571,12.4239,8.107979,0.0426909,0.77739451,165.9146,12/11.0/2021,2000,g  9.0,4.0
# From MPC 74248
P/2010 T2 (PANSTARRS),e,7.8893,58.7442,353.1053,5.543594,0.0755122,0.32194766,297.3134,12/11.0/2021,2000,g 11.5,4.0
# From MPC 98558
P/2010 TO20 (LINEAR-Grauer),e,2.4788,43.2903,267.0586,5.831731,0.0699855,0.05533371,335.7212,12/11.0/2021,2000,g  9.0,4.0
# From MPC 82316
P/2010 U1 (Boattini),e,8.2167,280.6967,86.0676,6.506604,0.0593844,0.24879528,257.3275,12/11.0/2021,2000,g  9.5,4.0
# From MPEC 2021-R75
C/2010 U3 (Boattini),e,55.5385,43.0085,88.0429,2407,0.0000083,0.99649203,0.0000,02/25.2238/2019,2000,g  1.0,4.0
# From MPC 79021
P/2010 UH55 (Spacewatch),e,8.0397,232.9265,225.1572,6.653841,0.0574243,0.56342446,223.9810,12/11.0/2021,2000,g 11.0,4.0
# From MPC 75009
P/2010 WK (LINEAR),e,11.4015,11.3313,40.9663,5.761975,0.0712602,0.69019660,292.0393,12/11.0/2021,2000,g 14.5,2.0
# From MPC 84021
P/2011 C2 (Gibbs),e,10.8855,12.1231,160.7640,7.413251,0.0488305,0.26891240,177.6563,12/11.0/2021,2000,g  9.0,4.0
# From MPC 79866
P/2011 FR143 (Lemmon),e,15.9775,190.9501,350.0353,6.860756,0.0548461,0.45051277,216.2397,12/11.0/2021,2000,g 14.0,2.0
# From MPC 82317
P/2011 JB15 (Spacewatch-Boattini),e,19.1477,153.5801,111.0730,7.360615,0.0493552,0.31697012,178.2484,12/11.0/2021,2000,g  9.0,4.0
# From MPC 87913
P/2011 N1 (ASH),e,35.7404,77.5865,330.3483,6.247349,0.0631191,0.54445292,220.4050,12/11.0/2021,2000,g 11.5,4.0
# From MPC 75714
P/2011 NO1 (Elenin),e,15.2466,295.8140,263.7538,5.527238,0.0758476,0.77454715,301.8908,12/11.0/2021,2000,g 15.0,4.0
# From MPC 82318
